ONEWEB-0228             
1 48780U 21045P   24148.61913751  .00000062  00000+0  13033-3 0  9991
2 48780  87.9048  48.5423 0001928  82.5946 277.5403 13.15549552145643
